{"spkid": "20465824", "covariance": {"labels": ["e", "q", "tp", "node", "peri", "i"], "data": [["2.212730208233436E-15", "-2.586148970853151E-15", "1.162682330350949E-13", "1.711554613936416E-13", "9.153552941088481E-15", "-2.920964270587847E-13"], ["-2.586148970853151E-15", "3.023146642266623E-15", "-1.407643416436796E-13", "-2.066199477526622E-13", "-9.106001907167908E-15", "3.425182950718393E-13"], ["1.162682330350949E-13", "-1.407643416436796E-13", "7.793928464724589E-11", "9.386854608106202E-11", "-9.493198258643645E-12", "-2.358189532257877E-11"], ["1.711554613936416E-13", "-2.066199477526622E-13", "9.386854608106202E-11", "1.584257204718089E-10", "-5.037776316574704E-11", "-4.172116139355035E-11"], ["9.153552941088481E-15", "-9.106001907167908E-15", "-9.493198258643645E-12", "-5.037776316574704E-11", "3.855929252301315E-11", "1.154598559876567E-11"], ["-2.920964270587847E-13", "3.425182950718393E-13", "-2.358189532257877E-11", "-4.172116139355035E-11", "1.154598559876567E-11", "9.065098272416181E-11"]], "elements": [{"label": "e", "title": "eccentricity", "value": ".3653684023335197", "units": null, "name": "e", "sigma": 4.70396663278284e-08}, {"units": "au", "value": ".7182930933401082", "title": "perihelion distance", "name": "q", "sigma": 5.49831487118246e-08, "label": "q"}, {"title": "time of perihelion passage", "value": "2457842.605510017086", "units": "TDB", "sigma": 8.82832286718411e-06, "name": "tp", "label": "tp"}, {"sigma": 1.25867279493842e-05, "name": "om", "title": "longitude of the ascending node", "value": "167.3224577554796", "units": "deg", "label": "node"}, {"label": "peri", "sigma": 6.20961291249408e-06, "name": "w", "units": "deg", "value": "272.5793901834298", "title": "argument of perihelion"}, {"sigma": 9.52108096405875e-06, "name": "i", "title": "inclination", "value": "14.23804385112124", "units": "deg", "label": "i"}], "epoch": "2457948.5"}, "elements": [{"units": null, "value": ".3654293310809785", "title": "eccentricity", "name": "e", "sigma": "4.7055E-8", "label": "e"}, {"label": "a", "units": "au", "title": "semi-major axis", "value": "1.131533978558418", "sigma": "2.7028E-9", "name": "a"}, {"name": "q", "sigma": "5.4888E-8", "value": ".7180382736784174", "title": "perihelion distance", "units": "au", "label": "q"}, {"label": "i", "value": "14.24369750033154", "title": "inclination; angle with respect to x-y ecliptic plane", "units": "deg", "name": "i", "sigma": "9.5197E-6"}, {"label": "node", "units": "deg", "value": "167.2443560626276", "title": "longitude of the ascending node", "name": "om", "sigma": "1.2571E-5"}, {"label": "peri", "units": "deg", "title": "argument of perihelion", "value": "272.7695341625577", "name": "w", "sigma": "6.2494E-6"}, {"sigma": "9.2298E-6", "name": "ma", "units": "deg", "title": "mean anomaly", "value": "229.7415476363353", "label": "M"}, {"label": "tp", "name": "tp", "sigma": "1.1721E-5", "title": "time of perihelion passage", "value": "2461359.575479029240", "units": "TDB"}, {"sigma": "1.5752E-6", "name": "per", "value": "439.6426597380699", "title": "sidereal orbital period", "units": "d", "label": "period"}, {"label": "n", "name": "n", "sigma": "2.9339E-9", "units": "deg/d", "value": ".8188468339593812", "title": "mean motion"}, {"units": "au", "value": "1.545029683438419", "title": "aphelion distance", "sigma": "3.6905E-9", "name": "ad", "label": "Q"}], "epoch": "2461200.5"}